[Satellite]
VERSION=1.1
NAME=O3B FM5
NICKNAME=O3B FM5
TLE1=1 39188U 13031A   17185.49427426 -.00000027  00000-0  00000-0 0  9997
TLE2=2 39188   0.0497  22.8615 0007941 108.8778 228.3270  5.00116000 73530
